[{"OBJECT_NAME":"STARLINK-30354","OBJECT_ID":"2023-134B","EPOCH":"2026-03-09T22:00:01.999584","MEAN_MOTION":15.14786929,"ECCENTRICITY":0.00019052,"INCLINATION":42.9992,"RA_OF_ASC_NODE":195.4235,"ARG_OF_PERICENTER":292.8215,"MEAN_ANOMALY":129.5089,"EPHEMERIS_TYPE":0,"CLASSIFICATION_TYPE":"U","NORAD_CAT_ID":57772,"ELEMENT_SET_NO":999,"REV_AT_EPOCH":563,"BSTAR":0.0041839085,"MEAN_MOTION_DOT":0.00079714,"MEAN_MOTION_DDOT":0},{"OBJECT_NAME":"CONNECTA IOT-13","OBJECT_ID":"2026-004AP","EPOCH":"2026-03-09T21:30:41.110560","MEAN_MOTION":15.17636182,"ECCENTRICITY":0.00083464,"INCLINATION":97.4574,"RA_OF_ASC_NODE":69.4172,"ARG_OF_PERICENTER":345.5859,"MEAN_ANOMALY":14.5136,"EPHEMERIS_TYPE":0,"CLASSIFICATION_TYPE":"U","NORAD_CAT_ID":67400,"ELEMENT_SET_NO":999,"REV_AT_EPOCH":869,"BSTAR":0.00022273325,"MEAN_MOTION_DOT":4.418e-5,"MEAN_MOTION_DDOT":0}]
